{"type": "FeatureCollection", "features": [ {"type": "Feature", "properties": {"norad_id": 31073, "name": "FENGYUN 1C DEB", "group": "fengyun-1c-debris", "lat": -19.741163136806442, "lon": 28.562820508768613, "alt_km": 790.753959525884, "timestamp": "2025-12-27T11:23:20.177944+00:00", "meta": {"OBJECT_NAME": "FENGYUN 1C DEB", "OBJECT_ID": "1999-025BFT", "EPOCH": "2025-12-27T02:01:24.022848", "MEAN_MOTION": 14.24867776, "ECCENTRICITY": 0.0044729, "INCLINATION": 99.2199, "RA_OF_ASC_NODE": 211.4948, "ARG_OF_PERICENTER": 244.855, "MEAN_ANOMALY": 114.7984, "EPHEMERIS_TYPE": 0, "CLASSIFICATION_TYPE": "U", "NORAD_CAT_ID": 31073, "ELEMENT_SET_NO": 999, "REV_AT_EPOCH": 97287, "BSTAR": 0.0012337, "MEAN_MOTION_DOT": 2.863e-05, "MEAN_MOTION_DDOT": 0}, "tle": {"line1": "1 31073U 99025BFT 25361.08430582  .00002863  00000+0  12337-2 0  9992", "line2": "2 31073  99.2199 211.4948 0044729 244.8550 114.7984 14.24867776972877"}}, "geometry": {"type": "Point", "coordinates": [28.562820508768613, -19.741163136806442]}}, {"type": "Feature", "properties": {"norad_id": 31074, "name": "FENGYUN 1C DEB", "group": "fengyun-1c-debris", "lat": -65.9096206595228, "lon": -62.82182091536677, "alt_km": 828.967236780134, "timestamp": "2025-12-27T11:23:20.177954+00:00", "meta": {"OBJECT_NAME": "FENGYUN 1C DEB", "OBJECT_ID": "1999-025BFU", "EPOCH": "2025-12-26T17:01:57.275616", "MEAN_MOTION": 14.14346031, "ECCENTRICITY": 0.00853463, "INCLINATION": 98.959, "RA_OF_ASC_NODE": 275.7516, "ARG_OF_PERICENTER": 225.8599, "MEAN_ANOMALY": 133.5534, "EPHEMERIS_TYPE": 0, "CLASSIFICATION_TYPE": "U", "NORAD_CAT_ID": 31074, "ELEMENT_SET_NO": 999, "REV_AT_EPOCH": 95777, "BSTAR": 0.0021281512, "MEAN_MOTION_DOT": 4.17e-05, "MEAN_MOTION_DDOT": 0}, "tle": {"line1": "1 31074U 99025BFU 25360.70969069  .00004170  00000+0  21282-2 0  9990", "line2": "2 31074  98.9590 275.7516 0085346 225.8599 133.5534 14.14346031957772"}}, "geometry": {"type": "Point", "coordinates": [-62.82182091536677, -65.9096206595228]}}, {"type": "Feature", "properties": {"norad_id": 31078, "name": "FENGYUN 1C DEB", "group": "fengyun-1c-debris", "lat": -43.78016867353141, "lon": 70.59475652406601, "alt_km": 898.5142588607432, "timestamp": "2025-12-27T11:23:20.177964+00:00", "meta": {"OBJECT_NAME": "FENGYUN 1C DEB", "OBJECT_ID": "1999-025BFY", "EPOCH": "2025-12-27T03:17:48.151104", "MEAN_MOTION": 14.2211242, "ECCENTRICITY": 0.0117244, "INCLINATION": 98.865, "RA_OF_ASC_NODE": 61.6543, "ARG_OF_PERICENTER": 107.7445, "MEAN_ANOMALY": 283.3109, "EPHEMERIS_TYPE": 0, "CLASSIFICATION_TYPE": "U", "NORAD_CAT_ID": 31078, "ELEMENT_SET_NO": 999, "REV_AT_EPOCH": 97097, "BSTAR": 0.00055103, "MEAN_MOTION_DOT": 1.265e-05, "MEAN_MOTION_DDOT": 0}, "tle": {"line1": "1 31078U 99025BFY 25361.13736286  .00001265  00000+0  55103-3 0  9997", "line2": "2 31078  98.8650  61.6543 0117244 107.7445 283.3109 14.22112420970976"}}, "geometry": {"type": "Point", "coordinates": [70.59475652406601, -43.78016867353141]}}, {"type": "Feature", "properties": {"norad_id": 31081, "name": "FENGYUN 1C DEB", "group": "fengyun-1c-debris", "lat": -25.367287033425626, "lon": 21.6464370109331, "alt_km": 906.0154773537233, "timestamp": "2025-12-27T11:23:20.177973+00:00", "meta": {"OBJECT_NAME": "FENGYUN 1C DEB", "OBJECT_ID": "1999-025BGB", "EPOCH": "2025-12-23T07:05:52.274688", "MEAN_MOTION": 14.06299048, "ECCENTRICITY": 0.00478119, "INCLINATION": 98.7696, "RA_OF_ASC_NODE": 13.4015, "ARG_OF_PERICENTER": 200.9733, "MEAN_ANOMALY": 228.9859, "EPHEMERIS_TYPE": 0, "CLASSIFICATION_TYPE": "U", "NORAD_CAT_ID": 31081, "ELEMENT_SET_NO": 999, "REV_AT_EPOCH": 96609, "BSTAR": 5.9046128e-05, "MEAN_MOTION_DOT": 5.6e-07, "MEAN_MOTION_DDOT": 0}, "tle": {"line1": "1 31081U 99025BGB 25357.29574392  .00000056  00000+0  59046-4 0  9999", "line2": "2 31081  98.7696  13.4015 0047811 200.9733 228.9859 14.06299048966095"}}, "geometry": {"type": "Point", "coordinates": [21.6464370109331, -25.367287033425626]}}, {"type": "Feature", "properties": {"norad_id": 31083, "name": "FENGYUN 1C DEB", "group": "fengyun-1c-debris", "lat": 71.84764109858897, "lon": -32.745806166755756, "alt_km": 698.9694029378215, "timestamp": "2025-12-27T11:23:20.177983+00:00", "meta": {"OBJECT_NAME": "FENGYUN 1C DEB", "OBJECT_ID": "1999-025BGD", "EPOCH": "2025-12-26T07:07:20.420832", "MEAN_MOTION": 14.62377083, "ECCENTRICITY": 0.0032319, "INCLINATION": 98.6459, "RA_OF_ASC_NODE": 118.3709, "ARG_OF_PERICENTER": 263.6875, "MEAN_ANOMALY": 125.5688, "EPHEMERIS_TYPE": 0, "CLASSIFICATION_TYPE": "U", "NORAD_CAT_ID": 31083, "ELEMENT_SET_NO": 999, "REV_AT_EPOCH": 97908, "BSTAR": 0.0028305, "MEAN_MOTION_DOT": 0.00014391, "MEAN_MOTION_DDOT": 0}, "tle": {"line1": "1 31083U 99025BGD 25360.29676413  .00014391  00000+0  28305-2 0  9991", "line2": "2 31083  98.6459 118.3709 0032319 263.6875 125.5688 14.62377083979081"}}, "geometry": {"type": "Point", "coordinates": [-32.745806166755756, 71.84764109858897]}}, {"type": "Feature", "properties": {"norad_id": 31085, "name": "FENGYUN 1C DEB", "group": "fengyun-1c-debris", "lat": -19.37154532050582, "lon": -154.0696159303389, "alt_km": 733.823129654058, "timestamp": "2025-12-27T11:23:20.177994+00:00", "meta": {"OBJECT_NAME": "FENGYUN 1C DEB", "OBJECT_ID": "1999-025BGF", "EPOCH": "2025-12-26T18:57:54.179424", "MEAN_MOTION": 14.30317507, "ECCENTRICITY": 0.00866963, "INCLINATION": 98.9836, "RA_OF_ASC_NODE": 202.0356, "ARG_OF_PERICENTER": 337.2633, "MEAN_ANOMALY": 81.4222, "EPHEMERIS_TYPE": 0, "CLASSIFICATION_TYPE": "U", "NORAD_CAT_ID": 31085, "ELEMENT_SET_NO": 999, "REV_AT_EPOCH": 97917, "BSTAR": 0.00011335684, "MEAN_MOTION_DOT": 2.59e-06, "MEAN_MOTION_DDOT": 0}, "tle": {"line1": "1 31085U 99025BGF 25360.79021041  .00000259  00000+0  11336-3 0  9994", "line2": "2 31085  98.9836 202.0356 0086696 337.2633  81.4222 14.30317507979175"}}, "geometry": {"type": "Point", "coordinates": [-154.0696159303389, -19.37154532050582]}}, {"type": "Feature", "properties": {"norad_id": 31087, "name": "FENGYUN 1C DEB", "group": "fengyun-1c-debris", "lat": -81.87993481736638, "lon": 114.77679012182826, "alt_km": 588.7961657180431, "timestamp": "2025-12-27T11:23:20.178004+00:00", "meta": {"OBJECT_NAME": "FENGYUN 1C DEB", "OBJECT_ID": "1999-025BGH", "EPOCH": "2025-12-27T00:26:12.697728", "MEAN_MOTION": 14.6043879, "ECCENTRICITY": 0.0171623, "INCLINATION": 98.1022, "RA_OF_ASC_NODE": 21.1198, "ARG_OF_PERICENTER": 245.9123, "MEAN_ANOMALY": 145.0086, "EPHEMERIS_TYPE": 0, "CLASSIFICATION_TYPE": "U", "NORAD_CAT_ID": 31087, "ELEMENT_SET_NO": 999, "REV_AT_EPOCH": 98978, "BSTAR": 0.00089023, "MEAN_MOTION_DOT": 5.256e-05, "MEAN_MOTION_DDOT": 0}, "tle": {"line1": "1 31087U 99025BGH 25361.01820252  .00005256  00000+0  89023-3 0  9993", "line2": "2 31087  98.1022  21.1198 0171623 245.9123 145.0086 14.60438790989788"}}, "geometry": {"type": "Point", "coordinates": [114.77679012182826, -81.87993481736638]}}, {"type": "Feature", "properties": {"norad_id": 31088, "name": "FENGYUN 1C DEB", "group": "fengyun-1c-debris", "lat": -59.71327290078194, "lon": 79.30449708810819, "alt_km": 798.9694198713869, "timestamp": "2025-12-27T11:23:20.178014+00:00", "meta": {"OBJECT_NAME": "FENGYUN 1C DEB", "OBJECT_ID": "1999-025BGJ", "EPOCH": "2025-12-27T03:24:35.845920", "MEAN_MOTION": 14.28808473, "ECCENTRICITY": 0.0027719, "INCLINATION": 99.4104, "RA_OF_ASC_NODE": 62.4497, "ARG_OF_PERICENTER": 19.0219, "MEAN_ANOMALY": 11.1543, "EPHEMERIS_TYPE": 0, "CLASSIFICATION_TYPE": "U", "NORAD_CAT_ID": 31088, "ELEMENT_SET_NO": 999, "REV_AT_EPOCH": 96755, "BSTAR": 0.0018041, "MEAN_MOTION_DOT": 4.518e-05, "MEAN_MOTION_DDOT": 0}, "tle": {"line1": "1 31088U 99025BGJ 25361.14208155  .00004518  00000+0  18041-2 0  9991", "line2": "2 31088  99.4104  62.4497 0027719  19.0219  11.1543 14.28808473967551"}}, "geometry": {"type": "Point", "coordinates": [79.30449708810819, -59.71327290078194]}}, {"type": "Feature", "properties": {"norad_id": 31089, "name": "FENGYUN 1C DEB", "group": "fengyun-1c-debris", "lat": 49.933459674907304, "lon": 132.14708561845765, "alt_km": 1004.838365953925, "timestamp": "2025-12-27T11:23:20.178024+00:00", "meta": {"OBJECT_NAME": "FENGYUN 1C DEB", "OBJECT_ID": "1999-025BGK", "EPOCH": "2025-12-26T20:21:07.178400", "MEAN_MOTION": 13.88355677, "ECCENTRICITY": 0.0206322, "INCLINATION": 98.9499, "RA_OF_ASC_NODE": 142.3444, "ARG_OF_PERICENTER": 173.4015, "MEAN_ANOMALY": 349.6985, "EPHEMERIS_TYPE": 0, "CLASSIFICATION_TYPE": "U", "NORAD_CAT_ID": 31089, "ELEMENT_SET_NO": 999, "REV_AT_EPOCH": 68255, "BSTAR": 0.00089199, "MEAN_MOTION_DOT": 1.225e-05, "MEAN_MOTION_DDOT": 0}, "tle": {"line1": "1 31089U 99025BGK 25360.84799975  .00001225  00000+0  89199-3 0  9998", "line2": "2 31089  98.9499 142.3444 0206322 173.4015 349.6985 13.88355677682552"}}, "geometry": {"type": "Point", "coordinates": [132.14708561845765, 49.933459674907304]}}, {"type": "Feature", "properties": {"norad_id": 31090, "name": "FENGYUN 1C DEB", "group": "fengyun-1c-debris", "lat": -63.86490092442194, "lon": 127.4929320526622, "alt_km": 498.37370260113676, "timestamp": "2025-12-27T11:23:20.178034+00:00", "meta": {"OBJECT_NAME": "FENGYUN 1C DEB", "OBJECT_ID": "1999-025BGL", "EPOCH": "2025-12-27T00:43:23.238048", "MEAN_MOTION": 15.34986961, "ECCENTRICITY": 0.0053389, "INCLINATION": 98.9821, "RA_OF_ASC_NODE": 108.1455, "ARG_OF_PERICENTER": 82.8079, "MEAN_ANOMALY": 277.9225, "EPHEMERIS_TYPE": 0, "CLASSIFICATION_TYPE": "U", "NORAD_CAT_ID": 31090, "ELEMENT_SET_NO": 999, "REV_AT_EPOCH": 1057, "BSTAR": 0.0018533, "MEAN_MOTION_DOT": 0.00066283, "MEAN_MOTION_DDOT": 0}, "tle": {"line1": "1 31090U 99025BGL 25361.03013007  .00066283  00000+0  18533-2 0  9995", "line2": "2 31090  98.9821 108.1455 0053389  82.8079 277.9225 15.34986961 10577"}}, "geometry": {"type": "Point", "coordinates": [127.4929320526622, -63.86490092442194]}}]}